GLOBALSTAR M094         
1 39074U 13005C   25345.31150077 -.00000091  00000+0  72166-4 0  9991
2 39074  51.9976   2.8256 0000085  30.1736 329.9135 12.62265292594746
GLOBALSTAR M096         
1 39075U 13005D   25345.16619557 -.00000089  00000+0  84909-4 0  9993
2 39075  52.0090  51.9190 0000332 143.7021 216.3869 12.62269289593642
GLOBALSTAR M078         
1 39076U 13005E   25345.14022056 -.00000099  00000+0  27060-4 0  9990
2 39076  51.9850 136.2700 0001010 158.1000 201.9910 12.62272405592268
GLOBALSTAR M095         
1 39077U 13005F   25345.16644276 -.00000099  00000+0  25400-4 0  9993
2 39077  52.0057 133.5264 0000666 125.5523 234.5406 12.62267230592126
GLOBALSTAR M087         
1 52888U 22064A   25345.25864681 -.00000071  00000+0  18343-3 0  9994
2 52888  52.0005 274.5921 0000535  42.3606 317.7302 12.62261244167400
